CCSDS_OMM_VERS = 2.0
CREATION_DATE  = 
ORIGINATOR     = 

OBJECT_NAME    = UNKNOWN
OBJECT_ID      = 
CENTER_NAME    = EARTH
REF_FRAME      = TEME
TIME_SYSTEM    = UTC
MEAN_ELEMENT_THEORY = SGP/SGP4

EPOCH          = 2026-04-03T13:30:18.346176
MEAN_MOTION    = 3.00176689
ECCENTRICITY   = .6574241
INCLINATION    = 2.0582
RA_OF_ASC_NODE = 177.4092
ARG_OF_PERICENTER = 182.6260
MEAN_ANOMALY   = 160.9292

EPHEMERIS_TYPE = 0
CLASSIFICATION_TYPE = U
NORAD_CAT_ID   = 84932
ELEMENT_SET_NO = 999
REV_AT_EPOCH   = 13514
BSTAR          = .70555E-2
MEAN_MOTION_DOT = .851E-5
MEAN_MOTION_DDOT = 0

CCSDS_OMM_VERS = 2.0
CREATION_DATE  = 
ORIGINATOR     = 

OBJECT_NAME    = UNKNOWN
OBJECT_ID      = 
CENTER_NAME    = EARTH
REF_FRAME      = TEME
TIME_SYSTEM    = UTC
MEAN_ELEMENT_THEORY = SGP/SGP4

EPOCH          = 2026-04-02T15:56:47.330880
MEAN_MOTION    = 14.41408583
ECCENTRICITY   = .0046458
INCLINATION    = 98.4381
RA_OF_ASC_NODE = 67.1809
ARG_OF_PERICENTER = 187.4721
MEAN_ANOMALY   = 350.6666

EPHEMERIS_TYPE = 0
CLASSIFICATION_TYPE = U
NORAD_CAT_ID   = 85004
ELEMENT_SET_NO = 999
REV_AT_EPOCH   = 64687
BSTAR          = .35407E-3
MEAN_MOTION_DOT = .1119E-4
MEAN_MOTION_DDOT = 0

CCSDS_OMM_VERS = 2.0
CREATION_DATE  = 
ORIGINATOR     = 

OBJECT_NAME    = UNKNOWN
OBJECT_ID      = 
CENTER_NAME    = EARTH
REF_FRAME      = TEME
TIME_SYSTEM    = UTC
MEAN_ELEMENT_THEORY = SGP/SGP4

EPOCH          = 2026-04-03T02:14:02.404896
MEAN_MOTION    = 13.75320279
ECCENTRICITY   = .0026562
INCLINATION    = 99.2417
RA_OF_ASC_NODE = 316.5944
ARG_OF_PERICENTER = 324.5503
MEAN_ANOMALY   = 189.3515

EPHEMERIS_TYPE = 0
CLASSIFICATION_TYPE = U
NORAD_CAT_ID   = 85010
ELEMENT_SET_NO = 999
REV_AT_EPOCH   = 61922
BSTAR          = .13824E-2
MEAN_MOTION_DOT = .1287E-4
MEAN_MOTION_DDOT = 0

CCSDS_OMM_VERS = 2.0
CREATION_DATE  = 
ORIGINATOR     = 

OBJECT_NAME    = UNKNOWN
OBJECT_ID      = 
CENTER_NAME    = EARTH
REF_FRAME      = TEME
TIME_SYSTEM    = UTC
MEAN_ELEMENT_THEORY = SGP/SGP4

EPOCH          = 2026-03-31T13:04:31.447488
MEAN_MOTION    = 14.62444688
ECCENTRICITY   = .0013913
INCLINATION    = 74.0503
RA_OF_ASC_NODE = 189.9652
ARG_OF_PERICENTER = 66.1380
MEAN_ANOMALY   = 294.1243

EPHEMERIS_TYPE = 0
CLASSIFICATION_TYPE = U
NORAD_CAT_ID   = 85015
ELEMENT_SET_NO = 999
REV_AT_EPOCH   = 65851
BSTAR          = .1416E-3
MEAN_MOTION_DOT = .688E-5
MEAN_MOTION_DDOT = 0

CCSDS_OMM_VERS = 2.0
CREATION_DATE  = 
ORIGINATOR     = 

OBJECT_NAME    = UNKNOWN
OBJECT_ID      = 
CENTER_NAME    = EARTH
REF_FRAME      = TEME
TIME_SYSTEM    = UTC
MEAN_ELEMENT_THEORY = SGP/SGP4

EPOCH          = 2026-04-02T02:01:47.176320
MEAN_MOTION    = 14.81582865
ECCENTRICITY   = .0000963
INCLINATION    = 99.8354
RA_OF_ASC_NODE = 136.8805
ARG_OF_PERICENTER = 160.1103
MEAN_ANOMALY   = 228.9922

EPHEMERIS_TYPE = 0
CLASSIFICATION_TYPE = U
NORAD_CAT_ID   = 85023
ELEMENT_SET_NO = 999
REV_AT_EPOCH   = 64513
BSTAR          = .39336E-2
MEAN_MOTION_DOT = .30967E-3
MEAN_MOTION_DDOT = 0

CCSDS_OMM_VERS = 2.0
CREATION_DATE  = 
ORIGINATOR     = 

OBJECT_NAME    = UNKNOWN
OBJECT_ID      = 
CENTER_NAME    = EARTH
REF_FRAME      = TEME
TIME_SYSTEM    = UTC
MEAN_ELEMENT_THEORY = SGP/SGP4

EPOCH          = 2026-04-03T15:38:22.105536
MEAN_MOTION    = 13.74297968
ECCENTRICITY   = .0168416
INCLINATION    = 66.0417
RA_OF_ASC_NODE = 187.4560
ARG_OF_PERICENTER = 130.1932
MEAN_ANOMALY   = 231.4014

EPHEMERIS_TYPE = 0
CLASSIFICATION_TYPE = U
NORAD_CAT_ID   = 85027
ELEMENT_SET_NO = 999
REV_AT_EPOCH   = 61999
BSTAR          = .29679E-3
MEAN_MOTION_DOT = .232E-5
MEAN_MOTION_DDOT = 0

CCSDS_OMM_VERS = 2.0
CREATION_DATE  = 
ORIGINATOR     = 

OBJECT_NAME    = UNKNOWN
OBJECT_ID      = 
CENTER_NAME    = EARTH
REF_FRAME      = TEME
TIME_SYSTEM    = UTC
MEAN_ELEMENT_THEORY = SGP/SGP4

EPOCH          = 2026-04-02T22:08:28.847040
MEAN_MOTION    = 13.47273534
ECCENTRICITY   = .012681
INCLINATION    = 102.1676
RA_OF_ASC_NODE = 86.7472
ARG_OF_PERICENTER = 123.7581
MEAN_ANOMALY   = 237.5699

EPHEMERIS_TYPE = 0
CLASSIFICATION_TYPE = U
NORAD_CAT_ID   = 85047
ELEMENT_SET_NO = 999
REV_AT_EPOCH   = 59161
BSTAR          = .28158E-1
MEAN_MOTION_DOT = .18006E-3
MEAN_MOTION_DDOT = 0

CCSDS_OMM_VERS = 2.0
CREATION_DATE  = 
ORIGINATOR     = 

OBJECT_NAME    = UNKNOWN
OBJECT_ID      = 
CENTER_NAME    = EARTH
REF_FRAME      = TEME
TIME_SYSTEM    = UTC
MEAN_ELEMENT_THEORY = SGP/SGP4

EPOCH          = 2026-04-02T22:37:44.809536
MEAN_MOTION    = 12.77878483
ECCENTRICITY   = .0264015
INCLINATION    = 102.4014
RA_OF_ASC_NODE = 91.9923
ARG_OF_PERICENTER = 334.4459
MEAN_ANOMALY   = 81.6787

EPHEMERIS_TYPE = 0
CLASSIFICATION_TYPE = U
NORAD_CAT_ID   = 85061
ELEMENT_SET_NO = 999
REV_AT_EPOCH   = 56998
BSTAR          = .18686E-1
MEAN_MOTION_DOT = .4725E-4
MEAN_MOTION_DDOT = 0

CCSDS_OMM_VERS = 2.0
CREATION_DATE  = 
ORIGINATOR     = 

OBJECT_NAME    = UNKNOWN
OBJECT_ID      = 
CENTER_NAME    = EARTH
REF_FRAME      = TEME
TIME_SYSTEM    = UTC
MEAN_ELEMENT_THEORY = SGP/SGP4

EPOCH          = 2026-04-01T01:47:49.185312
MEAN_MOTION    = 14.40814286
ECCENTRICITY   = .001344
INCLINATION    = 74.0480
RA_OF_ASC_NODE = 20.6343
ARG_OF_PERICENTER = 225.0229
MEAN_ANOMALY   = 152.2993

EPHEMERIS_TYPE = 0
CLASSIFICATION_TYPE = U
NORAD_CAT_ID   = 85100
ELEMENT_SET_NO = 999
REV_AT_EPOCH   = 64909
BSTAR          = .14496E-3
MEAN_MOTION_DOT = .438E-5
MEAN_MOTION_DDOT = 0

CCSDS_OMM_VERS = 2.0
CREATION_DATE  = 
ORIGINATOR     = 

OBJECT_NAME    = UNKNOWN
OBJECT_ID      = 
CENTER_NAME    = EARTH
REF_FRAME      = TEME
TIME_SYSTEM    = UTC
MEAN_ELEMENT_THEORY = SGP/SGP4

EPOCH          = 2026-04-03T06:17:57.679296
MEAN_MOTION    = 13.73067412
ECCENTRICITY   = .0010866
INCLINATION    = 100.0544
RA_OF_ASC_NODE = 204.6094
ARG_OF_PERICENTER = 92.1355
MEAN_ANOMALY   = 297.9506

EPHEMERIS_TYPE = 0
CLASSIFICATION_TYPE = U
NORAD_CAT_ID   = 85106
ELEMENT_SET_NO = 999
REV_AT_EPOCH   = 61837
BSTAR          = .94562E-3
MEAN_MOTION_DOT = .826E-5
MEAN_MOTION_DDOT = 0

CCSDS_OMM_VERS = 2.0
CREATION_DATE  = 
ORIGINATOR     = 

OBJECT_NAME    = UNKNOWN
OBJECT_ID      = 
CENTER_NAME    = EARTH
REF_FRAME      = TEME
TIME_SYSTEM    = UTC
MEAN_ELEMENT_THEORY = SGP/SGP4

EPOCH          = 2026-03-31T10:48:13.755744
MEAN_MOTION    = 14.84145521
ECCENTRICITY   = .000777
INCLINATION    = 98.3980
RA_OF_ASC_NODE = 324.7241
ARG_OF_PERICENTER = 140.8440
MEAN_ANOMALY   = 219.3337

EPHEMERIS_TYPE = 0
CLASSIFICATION_TYPE = U
NORAD_CAT_ID   = 85151
ELEMENT_SET_NO = 999
REV_AT_EPOCH   = 49562
BSTAR          = .31124E-2
MEAN_MOTION_DOT = .26046E-3
MEAN_MOTION_DDOT = 0

CCSDS_OMM_VERS = 2.0
CREATION_DATE  = 
ORIGINATOR     = 

OBJECT_NAME    = UNKNOWN
OBJECT_ID      = 
CENTER_NAME    = EARTH
REF_FRAME      = TEME
TIME_SYSTEM    = UTC
MEAN_ELEMENT_THEORY = SGP/SGP4

EPOCH          = 2026-03-31T16:28:40.263168
MEAN_MOTION    = 13.71687155
ECCENTRICITY   = .0215263
INCLINATION    = 99.8645
RA_OF_ASC_NODE = 239.6912
ARG_OF_PERICENTER = 35.7962
MEAN_ANOMALY   = 340.9039

EPHEMERIS_TYPE = 0
CLASSIFICATION_TYPE = U
NORAD_CAT_ID   = 85210
ELEMENT_SET_NO = 999
REV_AT_EPOCH   = 61709
BSTAR          = .4308E-3
MEAN_MOTION_DOT = .412E-5
MEAN_MOTION_DDOT = 0

